OBJECT_NAME,OBJECT_ID,EPOCH,MEAN_MOTION,ECCENTRICITY,INCLINATION,RA_OF_ASC_NODE,ARG_OF_PERICENTER,MEAN_ANOMALY,EPHEMERIS_TYPE,CLASSIFICATION_TYPE,NORAD_CAT_ID,ELEMENT_SET_NO,REV_AT_EPOCH,BSTAR,MEAN_MOTION_DOT,MEAN_MOTION_DDOT
GALAXY 33 (G-33),2022-128A,2026-06-16T04:46:49.367136,1.00271662,.0001596,0.0114,12.3589,75.2375,115.5857,0,U,54026,999,1373,0,.79E-6,0
GALAXY 34 (G-34),2022-128B,2026-06-15T12:26:48.200352,1.00271904,.00013101,0.0129,6.0107,96.4818,219.0064,0,U,54027,999,1389,0,.61E-6,0
ANGOSAT 2,2022-131A,2026-06-16T02:51:30.563136,1.00271360,.0000697,0.0267,76.8014,36.6623,216.8050,0,U,54033,999,1346,0,.135E-5,0
EUTELSAT HOTBIRD 13F,2022-134A,2026-06-15T13:07:14.323584,1.00270937,.00022445,0.0519,292.7335,60.0843,120.8350,0,U,54048,999,1336,0,.89E-6,0
LDPE-2,2022-144A,2026-06-15T15:09:04.250016,1.00531388,.00018219,5.6096,63.6649,105.3230,163.2453,0,U,54219,999,1182,0,.128E-5,0
EUTELSAT HOTBIRD 13G,2022-146A,2026-06-15T13:07:14.323584,1.00269766,.00017055,0.0509,232.5107,316.5388,284.5981,0,U,54225,999,745,0,.89E-6,0
ZHONGXING-19,2022-148A,2026-06-16T00:34:38.714016,1.00270328,.0002272,0.0230,13.7161,97.6382,324.8015,0,U,54230,999,1336,0,0,0
GALAXY 31 (G-31),2022-153A,2026-06-16T04:09:38.741184,1.00270895,.0001014,0.0196,42.9244,32.9899,129.9306,0,U,54243,999,712,0,.13E-6,0
GALAXY 32 (G-32),2022-153B,2026-06-14T22:56:24.476640,1.00491998,.0015287,0.0165,349.6788,254.3091,272.5395,0,U,54244,999,1312,0,-.197E-5,0
EUTELSAT 10B,2022-157A,2026-06-16T02:47:45.922272,1.00266002,.0001187,0.0635,98.9775,13.5283,203.8302,0,U,54259,999,1301,0,.67E-6,0
GALAXY 35 (G-35),2022-170A,2026-06-16T03:53:38.566752,1.00268695,.0001817,0.0197,26.0505,60.8966,142.7913,0,U,54741,999,1288,0,0,0
GALAXY 36 (G-36),2022-170B,2026-06-16T03:08:12.264864,1.00270266,.0002505,0.0205,252.7933,191.2900,138.3738,0,U,54742,999,1276,0,-.185E-5,0
METEOSAT-12 (MTG-I1),2022-170C,2026-06-16T02:44:46.209408,1.00272351,.0003143,0.7370,22.7991,71.6629,210.7035,0,U,54743,999,1296,0,-.9E-7,0
SHIJIAN-23 (SJ-23),2023-002A,2026-06-15T17:48:06.069024,1.00087863,.0003808,3.7140,78.3309,271.7919,329.9907,0,U,55131,999,1249,0,-.244E-5,0
APSTAR-6E,2023-005A,2026-06-15T17:07:09.418944,1.00268070,.00011143,0.0372,251.5524,313.0083,90.2366,0,U,55239,999,1867,0,-.316E-5,0
USA 342,2023-008A,2026-06-12T15:01:23.172096,1.00272733,.0000206,0.0059,338.0459,258.5222,273.5711,0,U,55263,999,1247,0,0,0
LDPE-3A,2023-008B,2026-06-16T02:15:05.222016,0.99144667,.0001079,2.3453,81.6764,65.2173,46.6497,0,U,55264,999,1180,0,.32E-6,0
ELEKTRO-L 4,2023-016A,2026-06-15T19:20:26.037888,1.00270696,.0000756,0.0736,165.9338,8.2633,185.8001,0,U,55506,999,1231,0,-.57E-6,0
AMAZONAS NEXUS,2023-017A,2026-06-15T12:46:16.334400,1.00267577,.00049166,0.0383,35.9590,30.4729,327.9525,0,U,55508,999,702,0,-.28E-5,0
ZHONGXING-26,2023-023A,2026-06-14T20:32:45.769056,1.00274575,.00033298,0.0684,71.1916,17.1102,248.1584,0,U,55686,999,1220,0,-.348E-5,0
LUCH-5X (OLYMP-K 2),2023-031A,2026-06-15T09:55:57.065952,1.00271794,.0000623,0.0284,59.9062,161.0098,253.7534,0,U,55841,999,1192,0,.36E-6,0
GAOFEN-13 02,2023-036A,2026-06-16T02:52:32.313216,1.00270591,.0004153,1.0202,1.0130,335.2747,119.5402,0,U,55912,999,1208,0,-.219E-5,0
SES-18,2023-038A,2026-06-14T22:52:54.812352,1.00270931,.00002588,0.0148,303.3095,342.6198,217.4462,0,U,55970,999,1208,0,-.96E-6,0
SES-19,2023-038B,2026-06-16T02:06:28.548288,1.00270980,.0001368,0.0105,351.8431,89.0765,80.1596,0,U,55971,999,1208,0,.88E-6,0
INTELSAT 40E (IS-40E),2023-052A,2026-06-15T09:12:23.741568,1.00269497,.00019311,0.0182,12.4035,113.0025,185.3673,0,U,56174,999,1180,0,0,0
VIASAT-3 F1,2023-060A,2026-06-15T07:30:21.690720,1.00270502,.00010072,0.0244,339.9973,93.6302,213.5951,0,U,56370,999,1141,0,0,0
ARCTURUS,2023-060B,2026-06-16T00:26:26.879424,1.00272344,.0002528,2.7726,79.9668,48.7696,214.6630,0,U,56371,999,1144,0,-.64E-6,0
GS-1,2023-060C,2026-06-14T21:58:38.193312,1.00275284,.0003785,2.7203,79.8626,282.6047,319.7725,0,U,56372,999,751,0,-.221E-5,0
BEIDOU-3 G4,2023-066A,2026-06-16T06:00:20.131200,1.00273940,.0004307,0.4878,331.2359,181.6822,341.7092,0,U,56564,999,1138,0,-.281E-5,0
ARABSAT-7B (BADR-8),2023-075A,2026-06-15T04:37:42.665952,1.00270389,.00043798,0.0785,30.3075,352.7494,335.8524,0,U,56757,999,1109,0,.148E-5,0
NVS-01 (IRNSS-1J),2023-076A,2026-06-15T22:13:50.083104,1.00265229,.0003202,2.1688,244.4095,36.3555,86.3741,0,U,56759,999,1110,0,-.334E-5,0
NUSANTARA TIGA (SATRIA),2023-086A,2026-06-15T12:28:38.731008,1.00267948,.00031793,0.0355,352.3654,355.6095,248.9867,0,U,57045,999,974,0,-.233E-5,0
