GALAXY 33 (G-33)        
1 54026U 22128A   26167.19918249  .00000079  00000+0  00000+0 0  9991
2 54026   0.0114  12.3589 0001596  75.2375 115.5857  1.00271662 13734
GALAXY 34 (G-34)        
1 54027U 22128B   26166.51861343  .00000061  00000+0  00000+0 0  9990
2 54027   0.0129   6.0107 0001310  96.4818 219.0064  1.00271904 13894
ANGOSAT 2               
1 54033U 22131A   26167.11910374  .00000135  00000+0  00000+0 0  9999
2 54033   0.0267  76.8014 0000697  36.6623 216.8050  1.00271360 13462
EUTELSAT HOTBIRD 13F    
1 54048U 22134A   26166.54669356  .00000089  00000+0  00000+0 0  9993
2 54048   0.0519 292.7335 0002244  60.0843 120.8350  1.00270937 13363
LDPE-2                  
1 54219U 22144A   26166.63129919  .00000128  00000+0  00000+0 0  9994
2 54219   5.6096  63.6649 0001821 105.3230 163.2453  1.00531388 11824
EUTELSAT HOTBIRD 13G    
1 54225U 22146A   26166.54669356  .00000089  00000+0  00000+0 0  9993
2 54225   0.0509 232.5107 0001705 316.5388 284.5981  1.00269766  7451
ZHONGXING-19            
1 54230U 22148A   26167.02405919  .00000000  00000+0  00000+0 0  9991
2 54230   0.0230  13.7161 0002272  97.6382 324.8015  1.00270328 13367
GALAXY 31 (G-31)        
1 54243U 22153A   26167.17336506  .00000013  00000+0  00000+0 0  9996
2 54243   0.0196  42.9244 0001014  32.9899 129.9306  1.00270895  7129
GALAXY 32 (G-32)        
1 54244U 22153B   26165.95583885 -.00000197  00000+0  00000+0 0  9999
2 54244   0.0165 349.6788 0015287 254.3091 272.5395  1.00491998 13126
EUTELSAT 10B            
1 54259U 22157A   26167.11650373  .00000067  00000+0  00000+0 0  9991
2 54259   0.0635  98.9775 0001187  13.5283 203.8302  1.00266002 13015
GALAXY 35 (G-35)        
1 54741U 22170A   26167.16225193  .00000000  00000+0  00000+0 0  9992
2 54741   0.0197  26.0505 0001817  60.8966 142.7913  1.00268695 12883
GALAXY 36 (G-36)        
1 54742U 22170B   26167.13069751 -.00000185  00000+0  00000+0 0  9991
2 54742   0.0205 252.7933 0002505 191.2900 138.3738  1.00270266 12769
METEOSAT-12 (MTG-I1)    
1 54743U 22170C   26167.11442372 -.00000009  00000+0  00000+0 0  9999
2 54743   0.7370  22.7991 0003143  71.6629 210.7035  1.00272351 12961
SHIJIAN-23 (SJ-23)      
1 55131U 23002A   26166.74173691 -.00000244  00000+0  00000+0 0  9990
2 55131   3.7140  78.3309 0003808 271.7919 329.9907  1.00087863 12495
APSTAR-6E               
1 55239U 23005A   26166.71330346 -.00000316  00000+0  00000+0 0  9991
2 55239   0.0372 251.5524 0001114 313.0083  90.2366  1.00268070 18679
USA 342                 
1 55263U 23008A   26163.62596264  .00000000  00000+0  00000+0 0  9990
2 55263   0.0059 338.0459 0000206 258.5222 273.5711  1.00272733 12478
LDPE-3A                 
1 55264U 23008B   26167.09381044  .00000032  00000+0  00000+0 0  9999
2 55264   2.3453  81.6764 0001079  65.2173  46.6497  0.99144667 11806
ELEKTRO-L 4             
1 55506U 23016A   26166.80585692 -.00000057  00000+0  00000+0 0  9998
2 55506   0.0736 165.9338 0000756   8.2633 185.8001  1.00270696 12315
AMAZONAS NEXUS          
1 55508U 23017A   26166.53213350 -.00000280  00000+0  00000+0 0  9998
2 55508   0.0383  35.9590 0004916  30.4729 327.9525  1.00267577  7022
ZHONGXING-26            
1 55686U 23023A   26165.85608529 -.00000348  00000+0  00000+0 0  9997
2 55686   0.0684  71.1916 0003329  17.1102 248.1584  1.00274575 12202
LUCH-5X (OLYMP-K 2)     
1 55841U 23031A   26166.41385493  .00000036  00000+0  00000+0 0  9997
2 55841   0.0284  59.9062 0000623 161.0098 253.7534  1.00271794 11929
GAOFEN-13 02            
1 55912U 23036A   26167.11981844 -.00000219  00000+0  00000+0 0  9995
2 55912   1.0202   1.0130 0004153 335.2747 119.5402  1.00270591 12086
SES-18                  
1 55970U 23038A   26165.95341218 -.00000096  00000+0  00000+0 0  9999
2 55970   0.0148 303.3095 0000258 342.6198 217.4462  1.00270931 12082
SES-19                  
1 55971U 23038B   26167.08783042  .00000088  00000+0  00000+0 0  9991
2 55971   0.0105 351.8431 0001368  89.0765  80.1596  1.00270980 12080
INTELSAT 40E (IS-40E)   
1 56174U 23052A   26166.38360812  .00000000  00000+0  00000+0 0  9995
2 56174   0.0182  12.4035 0001931 113.0025 185.3673  1.00269497 11808
VIASAT-3 F1             
1 56370U 23060A   26166.31275105  .00000000  00000+0  00000+0 0  9995
2 56370   0.0244 339.9973 0001007  93.6302 213.5951  1.00270502 11417
ARCTURUS                
1 56371U 23060B   26167.01836666 -.00000064  00000+0  00000+0 0  9990
2 56371   2.7726  79.9668 0002528  48.7696 214.6630  1.00272344 11445
GS-1                    
1 56372U 23060C   26165.91571983 -.00000221  00000+0  00000+0 0  9991
2 56372   2.7203  79.8626 0003785 282.6047 319.7725  1.00275284  7515
BEIDOU-3 G4             
1 56564U 23066A   26167.25023300 -.00000281  00000+0  00000+0 0  9990
2 56564   0.4878 331.2359 0004307 181.6822 341.7092  1.00273940 11388
ARABSAT-7B (BADR-8)     
1 56757U 23075A   26166.19285493  .00000148  00000+0  00000+0 0  9990
2 56757   0.0785  30.3075 0004379 352.7494 335.8524  1.00270389 11098
NVS-01 (IRNSS-1J)       
1 56759U 23076A   26166.92627411 -.00000334  00000+0  00000+0 0  9992
2 56759   2.1688 244.4095 0003202  36.3555  86.3741  1.00265229 11100
NUSANTARA TIGA (SATRIA) 
1 57045U 23086A   26166.51989272 -.00000233  00000+0  00000+0 0  9991
2 57045   0.0355 352.3654 0003179 355.6095 248.9867  1.00267948  9748
